NORAD_CAT_ID,OBJECT_NAME,OBJECT_TYPE,EPOCH,MEAN_MOTION,ECCENTRICITY,INCLINATION,RA_OF_ASC_NODE,ARG_OF_PERICENTER,MEAN_ANOMALY,BSTAR,MEAN_MOTION_DOT,MEAN_MOTION_DDOT,TLE_LINE0,TLE_LINE1,TLE_LINE2,SEMIMAJOR_AXIS,PERIOD,APOGEE,PERIGEE,DECAYED
51750.0,STARLINK-3505,PAYLOAD,2022-03-17 06:00:00,15.73196948,0.0001181,53.2181,22.4921,87.6532,184.3701,0.00043825,0.00061327,0.0,0 STARLINK-3505,1 51750U 22016AN  22076.25001157  .00061327  00000-0  43825-3 0  9991,2 51750  53.2181  22.4921 0001181  87.6532 184.3701 15.73196948  4991,6727.904,91.533,350.56300000000016,348.974,0.0
51750.0,STARLINK-3505,PAYLOAD,2022-03-17 14:00:01,15.73280556,9.63e-05,53.2175,20.8408,100.7163,260.2649,-0.00049957,-0.00070385,0.0,0 STARLINK-3505,1 51750U 22016AN  22076.58334491 -.00070385  00000-0 -49957-3 0  9995,2 51750  53.2175  20.8408 0000963 100.7163 260.2649 15.73280556  3690,6727.666,91.528,350.17800000000005,348.8830000000001,0.0
51750.0,STARLINK-3505,PAYLOAD,2022-03-17 22:00:00,15.73239598,0.0001013,53.2175,19.1911,102.2409,347.7328,8.5231e-05,0.00011378,0.0,0 STARLINK-3505,1 51750U 22016AN  22076.91667824  .00011378  00000-0  85231-4 0  9992,2 51750  53.2175  19.1911 0001013 102.2409 347.7328 15.73239598  3692,6727.781999999997,91.531,350.329,348.966,0.0
51750.0,STARLINK-3505,PAYLOAD,2022-03-18 08:00:01,15.7319514,9.77e-05,53.217,17.1308,86.4067,204.794,0.00032453,0.00045161,0.0,0 STARLINK-3505,1 51750U 22016AN  22077.33334491  .00045161  00000-0  32453-3 0  9994,2 51750  53.2170  17.1308 0000977  86.4067 204.7940 15.73195140  5166,6727.909000000002,91.533,350.431,349.117,0.0
51750.0,STARLINK-3505,PAYLOAD,2022-03-18 14:00:01,15.73226552,0.0001001,53.2171,15.8921,102.421,165.4852,-0.00037163,-0.00052508,0.0,0 STARLINK-3505,1 51750U 22016AN  22077.58334491 -.00052508  00000-0 -37163-3 0  9999,2 51750  53.2171  15.8921 0001001 102.4210 165.4852 15.73226552  3717,6727.819,91.532,350.358,349.011,0.0
51750.0,STARLINK-3505,PAYLOAD,2022-03-18 22:00:00,15.73224377,0.0001027,53.2173,14.2428,107.2552,249.5806,-0.00052857,-0.00074224,0.0,0 STARLINK-3505,1 51750U 22016AN  22077.91667824 -.00074224  00000-0 -52857-3 0  9991,2 51750  53.2173  14.2428 0001027 107.2552 249.5806 15.73224377  5251,6727.826,91.532,350.38199999999995,349.0,0.0
51750.0,STARLINK-3505,PAYLOAD,2022-03-19 14:00:01,15.73185497,0.0001026,53.2177,10.9439,103.7062,70.9303,0.00042324,0.00059161,0.0,0 STARLINK-3505,1 51750U 22016AN  22078.58334491  .00059161  00000-0  42324-3 0  9995,2 51750  53.2177  10.9439 0001026 103.7062  70.9303 15.73185497  5365,6727.937,91.534,350.492,349.111,0.0
51750.0,STARLINK-3505,PAYLOAD,2022-03-19 22:00:01,15.73266492,0.0001056,53.2178,9.2948,106.2044,157.4194,-0.00027697,-0.00039418,0.0,0 STARLINK-3505,1 51750U 22016AN  22078.91668981 -.00039418  00000-0 -27697-3 0  9997,2 51750  53.2178   9.2948 0001056 106.2044 157.4194 15.73266492  3725,6727.706,91.529,350.281,348.86,0.0
51750.0,STARLINK-3505,PAYLOAD,2022-03-20 06:00:00,15.73200728,9.39e-05,53.2174,7.647,90.4374,262.11,0.00015054,0.0002056,0.0,0 STARLINK-3505,1 51750U 22016AN  22079.25001157  .00020560  00000-0  15054-3 0  9991,2 51750  53.2174   7.6470 0000939  90.4374 262.1100 15.73200728  5466,6727.893,91.533,350.39,349.126,0.0
51750.0,STARLINK-3505,PAYLOAD,2022-03-20 14:00:01,15.73172305,9.95e-05,53.2173,5.9954,109.8352,331.6681,0.00028244,0.00039156,0.0,0 STARLINK-3505,1 51750U 22016AN  22079.58334491  .00039156  00000-0  28244-3 0  9993,2 51750  53.2173   5.9954 0000995 109.8352 331.6681 15.73172305  3683,6727.974,91.535,350.509,349.17,0.0
51750.0,STARLINK-3505,PAYLOAD,2022-03-20 22:00:01,15.73218789,0.0001122,53.2173,4.3466,107.5652,62.9112,0.00019396,0.00026709,0.0,0 STARLINK-3505,1 51750U 22016AN  22079.91668981  .00026709  00000-0  19396-3 0  9992,2 51750  53.2173   4.3466 0001122 107.5652  62.9112 15.73218789  3708,6727.842,91.532,350.461,348.952,0.0
51750.0,STARLINK-3505,PAYLOAD,2022-03-21 14:00:01,15.73205258,0.0001123,53.2175,1.0469,108.7885,239.5811,-0.00022729,-0.00032402,0.0,0 STARLINK-3505,1 51750U 22016AN  22080.58334491 -.00032402  00000-0 -22729-3 0  9996,2 51750  53.2175   1.0469 0001123 108.7885 239.5811 15.73205258  5672,6727.88,91.533,350.501,348.99,0.0
51750.0,STARLINK-3505,PAYLOAD,2022-03-21 22:00:00,15.73187484,0.00012,53.2176,359.3981,104.0918,333.1936,-0.00036622,-0.00051673,0.0,0 STARLINK-3505,1 51750U 22016AN  22080.91667824 -.00051673  00000-0 -36622-3 0  9990,2 51750  53.2176 359.3981 0001200 104.0918 333.1936 15.73187484  3692,6727.931,91.534,350.603,348.98900000000015,0.0
51750.0,STARLINK-3505,PAYLOAD,2022-03-22 14:00:01,15.73158644,0.0001198,53.2171,356.0986,107.8232,147.2243,0.00056476,0.0007925,0.0,0 STARLINK-3505,1 51750U 22016AN  22081.58334491  .00079250  00000-0  56476-3 0  9993,2 51750  53.2171 356.0986 0001198 107.8232 147.2243 15.73158644  5831,6728.013000000001,91.536,350.684,349.07199999999995,0.0
51750.0,STARLINK-3505,PAYLOAD,2022-03-22 22:00:01,15.73239106,0.0001181,53.2171,354.45,107.3808,236.6516,9.4949e-05,0.00012748,0.0,0 STARLINK-3505,1 51750U 22016AN  22081.91668981  .00012748  00000-0  94949-4 0  9991,2 51750  53.2171 354.4500 0001181 107.3808 236.6516 15.73239106  3704,6727.784000000002,91.531,350.4430000000001,348.85400000000016,0.0
51750.0,STARLINK-3505,PAYLOAD,2022-03-23 08:00:01,15.73288087,0.0001017,53.2169,352.3887,102.6362,82.5438,-0.00086372,-0.00120564,0.0,0 STARLINK-3505,1 51750U 22016AN  22082.33334491 -.00120564  00000-0 -86372-3 0  9992,2 51750  53.2169 352.3887 0001017 102.6362  82.5438 15.73288087  5959,6727.644,91.528,350.1930000000001,348.825,0.0
51750.0,STARLINK-3505,PAYLOAD,2022-03-23 14:00:01,15.73184276,0.0001014,53.2172,351.1497,113.5438,48.3989,0.00028002,0.00038834,0.0,0 STARLINK-3505,1 51750U 22016AN  22082.58334491  .00038834  00000-0  28002-3 0  9991,2 51750  53.2172 351.1497 0001014 113.5438  48.3989 15.73184276  3694,6727.94,91.534,350.487,349.12300000000016,0.0
51750.0,STARLINK-3505,PAYLOAD,2022-03-23 22:00:00,15.73230963,0.0001102,53.2174,349.5013,108.1307,142.7297,2.6616e-05,3.122e-05,0.0,0 STARLINK-3505,1 51750U 22016AN  22082.91667824  .00003122  00000-0  26616-4 0  9999,2 51750  53.2174 349.5013 0001102 108.1307 142.7297 15.73230963  6042,6727.807,91.531,350.413,348.93,0.0
51750.0,STARLINK-3505,PAYLOAD,2022-03-24 14:00:01,15.73150978,0.0001044,53.217,346.201,117.2696,311.5123,0.00053029,0.00074306,0.0,0 STARLINK-3505,1 51750U 22016AN  22083.58334491  .00074306  00000-0  53029-3 0  9993,2 51750  53.2170 346.2010 0001044 117.2696 311.5123 15.73150978  3684,6728.035,91.536,350.602,349.1980000000001,0.0
51750.0,STARLINK-3505,PAYLOAD,2022-03-24 22:00:00,15.73214581,0.0001142,53.217,344.5529,108.5729,49.0921,-5.095e-05,-7.768e-05,0.0,0 STARLINK-3505,1 51750U 22016AN  22083.91667824 -.00007768  00000-0 -50950-4 0  9990,2 51750  53.2170 344.5529 0001142 108.5729  49.0921 15.73214581  3702,6727.854,91.532,350.487,348.95,0.0
51750.0,STARLINK-3505,PAYLOAD,2022-03-25 00:00:02,15.73229342,0.0001166,53.2164,344.1411,104.8137,165.1484,-0.0003028,-0.00042952,0.0,0 STARLINK-3505,1 51750U 22016AN  22084.00002315 -.00042952  00000-0 -30280-3 0  9996,2 51750  53.2164 344.1411 0001166 104.8137 165.1484 15.73229342  6213,6727.812,91.531,350.461,348.892,0.0
51750.0,STARLINK-3505,PAYLOAD,2022-03-25 14:00:01,15.73180281,0.0001094,53.2172,341.2524,116.8611,218.6852,6.0297e-05,7.843e-05,0.0,0 STARLINK-3505,1 51750U 22016AN  22084.58334491  .00007843  00000-0  60297-4 0  9992,2 51750  53.2172 341.2524 0001094 116.8611 218.6852 15.73180281  3695,6727.951,91.534,350.552,349.08,0.0
51750.0,STARLINK-3505,PAYLOAD,2022-03-25 20:00:01,15.73188082,0.0001017,53.2176,340.0161,114.6768,197.547,0.00016345,0.00022368,0.0,0 STARLINK-3505,1 51750U 22016AN  22084.83334491  .00022368  00000-0  16345-3 0  9993,2 51750  53.2176 340.0161 0001017 114.6768 197.5470 15.73188082  6340,6727.929,91.534,350.478,349.11,0.0
51750.0,STARLINK-3505,PAYLOAD,2022-03-25 22:00:01,15.73194462,9.77e-05,53.2178,339.6045,108.5347,315.9822,0.00013733,0.00018692,0.0,0 STARLINK-3505,1 51750U 22016AN  22084.91668981  .00018692  00000-0  13733-3 0  9999,2 51750  53.2178 339.6045 0000977 108.5347 315.9822 15.73194462  3743,6727.911,91.534,350.43300000000005,349.119,0.0
51750.0,STARLINK-3505,PAYLOAD,2022-03-26 14:00:01,15.73154506,0.0001133,53.2172,336.3040000000001,114.62,127.6943,0.0006336,0.00089074,0.0,0 STARLINK-3505,1 51750U 22016AN  22085.58334491  .00089074  00000-0  63360-3 0  9992,2 51750  53.2172 336.3040 0001133 114.6200 127.6943 15.73154506  6466,6728.025,91.536,350.652,349.12800000000016,0.0
51750.0,STARLINK-3505,PAYLOAD,2022-03-26 22:00:00,15.73251187,0.000104,53.2173,334.6563,109.3836,221.8353,-0.00057508,-0.00080731,0.0,0 STARLINK-3505,1 51750U 22016AN  22085.91667824 -.00080731  00000-0 -57508-3 0  9998,2 51750  53.2173 334.6563 0001040 109.3836 221.8353 15.73251187  3711,6727.749,91.53,350.314,348.915,0.0
51750.0,STARLINK-3505,PAYLOAD,2022-03-27 06:00:00,15.73220433,8.99e-05,53.217,333.0071,104.3842,315.7912,-0.00051855,-0.00072828,0.0,0 STARLINK-3505,1 51750U 22016AN  22086.25001157 -.00072828  00000-0 -51855-3 0  9994,2 51750  53.2170 333.0071 0000899 104.3842 315.7912 15.73220433  6568,6727.837,91.532,350.307,349.097,0.0
51750.0,STARLINK-3505,PAYLOAD,2022-03-27 14:00:01,15.72821364,0.0001250999999999,53.2171,331.3415,111.9975,37.1517,0.0040677,0.00603469,0.0,0 STARLINK-3505,1 51750U 22016AN  22086.58334491  .00603469  00000-0  40677-2 0  9998,2 51750  53.2171 331.3415 0001251 111.9975  37.1517 15.72821364  6628,6728.975,91.555,351.682,349.99800000000016,0.0
51750.0,STARLINK-3505,PAYLOAD,2022-03-27 22:00:01,15.73246595,0.0001106,53.2176,329.7079,104.3831,133.7532,-0.00032797,-0.00046485,0.0,0 STARLINK-3505,1 51750U 22016AN  22086.91668981 -.00046485  00000-0 -32797-3 0  9995,2 51750  53.2176 329.7079 0001106 104.3831 133.7532 15.73246595  3700,6727.762,91.53,350.371,348.8830000000001,0.0
